[{"OBJECT_NAME":"TIANLIAN 2-04","OBJECT_ID":"2025-062A","EPOCH":"2026-03-07T15:11:26.538720","MEAN_MOTION":1.00271791,"ECCENTRICITY":0.00347716,"INCLINATION":4.6356,"RA_OF_ASC_NODE":275.8254,"ARG_OF_PERICENTER":9.69,"MEAN_ANOMALY":187.7126,"EPHEMERIS_TYPE":0,"CLASSIFICATION_TYPE":"U","NORAD_CAT_ID":63361,"ELEMENT_SET_NO":999,"REV_AT_EPOCH":358,"BSTAR":0,"MEAN_MOTION_DOT":-1.39e-6,"MEAN_MOTION_DDOT":0},{"OBJECT_NAME":"TJS-16","OBJECT_ID":"2025-064A","EPOCH":"2026-03-07T18:44:32.890272","MEAN_MOTION":1.00272654,"ECCENTRICITY":0.0005184,"INCLINATION":0.8362,"RA_OF_ASC_NODE":81.9351,"ARG_OF_PERICENTER":260.803,"MEAN_ANOMALY":264.4571,"EPHEMERIS_TYPE":0,"CLASSIFICATION_TYPE":"U","NORAD_CAT_ID":63397,"ELEMENT_SET_NO":999,"REV_AT_EPOCH":337,"BSTAR":0,"MEAN_MOTION_DOT":-1.06e-6,"MEAN_MOTION_DDOT":0},{"OBJECT_NAME":"TJS-17","OBJECT_ID":"2025-073A","EPOCH":"2026-03-07T19:15:13.087584","MEAN_MOTION":1.00272328,"ECCENTRICITY":0.0004418,"INCLINATION":0.8016,"RA_OF_ASC_NODE":83.5204,"ARG_OF_PERICENTER":252.3735,"MEAN_ANOMALY":282.8954,"EPHEMERIS_TYPE":0,"CLASSIFICATION_TYPE":"U","NORAD_CAT_ID":63524,"ELEMENT_SET_NO":999,"REV_AT_EPOCH":327,"BSTAR":0,"MEAN_MOTION_DOT":-7.1e-7,"MEAN_MOTION_DDOT":0},{"OBJECT_NAME":"TIANLIAN 2-05","OBJECT_ID":"2025-084A","EPOCH":"2026-03-07T07:10:06.788352","MEAN_MOTION":1.0027398,"ECCENTRICITY":0.0003252,"INCLINATION":4.7094,"RA_OF_ASC_NODE":280.9413,"ARG_OF_PERICENTER":85.2773,"MEAN_ANOMALY":286.6951,"EPHEMERIS_TYPE":0,"CLASSIFICATION_TYPE":"U","NORAD_CAT_ID":63662,"ELEMENT_SET_NO":999,"REV_AT_EPOCH":336,"BSTAR":0,"MEAN_MOTION_DOT":1.19e-6,"MEAN_MOTION_DDOT":0},{"OBJECT_NAME":"TJS-19","OBJECT_ID":"2025-097A","EPOCH":"2026-03-07T19:13:17.446368","MEAN_MOTION":1.0027574,"ECCENTRICITY":0.0003392,"INCLINATION":3.4597,"RA_OF_ASC_NODE":315.853,"ARG_OF_PERICENTER":338.0488,"MEAN_ANOMALY":301.1181,"EPHEMERIS_TYPE":0,"CLASSIFICATION_TYPE":"U","NORAD_CAT_ID":63924,"ELEMENT_SET_NO":999,"REV_AT_EPOCH":312,"BSTAR":0,"MEAN_MOTION_DOT":-2.77e-6,"MEAN_MOTION_DDOT":0},{"OBJECT_NAME":"CHINASAT 3B","OBJECT_ID":"2025-106A","EPOCH":"2026-03-05T21:38:19.057344","MEAN_MOTION":1.00268665,"ECCENTRICITY":0.00017739,"INCLINATION":0.0213,"RA_OF_ASC_NODE":135.9648,"ARG_OF_PERICENTER":194.0821,"MEAN_ANOMALY":325.4661,"EPHEMERIS_TYPE":0,"CLASSIFICATION_TYPE":"U","NORAD_CAT_ID":64062,"ELEMENT_SET_NO":999,"REV_AT_EPOCH":302,"BSTAR":0,"MEAN_MOTION_DOT":0,"MEAN_MOTION_DDOT":0},{"OBJECT_NAME":"SXM-10","OBJECT_ID":"2025-122A","EPOCH":"2026-03-07T04:48:35.355744","MEAN_MOTION":1.00273062,"ECCENTRICITY":0.0002755,"INCLINATION":0.0255,"RA_OF_ASC_NODE":64.4497,"ARG_OF_PERICENTER":306.0798,"MEAN_ANOMALY":110.3471,"EPHEMERIS_TYPE":0,"CLASSIFICATION_TYPE":"U","NORAD_CAT_ID":64290,"ELEMENT_SET_NO":999,"REV_AT_EPOCH":266,"BSTAR":0,"MEAN_MOTION_DOT":-1.9e-7,"MEAN_MOTION_DDOT":0},{"OBJECT_NAME":"CHINASAT 9C","OBJECT_ID":"2025-132A","EPOCH":"2026-03-07T14:04:14.355264","MEAN_MOTION":1.00271442,"ECCENTRICITY":0.00025365,"INCLINATION":0.0293,"RA_OF_ASC_NODE":107.7147,"ARG_OF_PERICENTER":230.2286,"MEAN_ANOMALY":130.6042,"EPHEMERIS_TYPE":0,"CLASSIFICATION_TYPE":"U","NORAD_CAT_ID":64470,"ELEMENT_SET_NO":999,"REV_AT_EPOCH":313,"BSTAR":0,"MEAN_MOTION_DOT":-2.48e-6,"MEAN_MOTION_DDOT":0},{"OBJECT_NAME":"MTG-S1","OBJECT_ID":"2025-143A","EPOCH":"2026-03-07T07:03:22.433760","MEAN_MOTION":1.00270406,"ECCENTRICITY":0.00024548,"INCLINATION":0.6521,"RA_OF_ASC_NODE":326.8037,"ARG_OF_PERICENTER":349.9696,"MEAN_ANOMALY":310.5915,"EPHEMERIS_TYPE":0,"CLASSIFICATION_TYPE":"U","NORAD_CAT_ID":64723,"ELEMENT_SET_NO":999,"REV_AT_EPOCH":239,"BSTAR":0,"MEAN_MOTION_DOT":-3.4e-7,"MEAN_MOTION_DDOT":0},{"OBJECT_NAME":"DROR 1","OBJECT_ID":"2025-148A","EPOCH":"2026-03-07T07:03:14.946336","MEAN_MOTION":1.0027145,"ECCENTRICITY":0.00035083,"INCLINATION":0.0355,"RA_OF_ASC_NODE":85.4351,"ARG_OF_PERICENTER":263.7791,"MEAN_ANOMALY":277.5827,"EPHEMERIS_TYPE":0,"CLASSIFICATION_TYPE":"U","NORAD_CAT_ID":64784,"ELEMENT_SET_NO":999,"REV_AT_EPOCH":227,"BSTAR":0,"MEAN_MOTION_DOT":-3.7e-7,"MEAN_MOTION_DDOT":0},{"OBJECT_NAME":"SHIYAN-29","OBJECT_ID":"2025-196A","EPOCH":"2026-03-06T18:19:44.289984","MEAN_MOTION":1.0028844,"ECCENTRICITY":0.00099435,"INCLINATION":28.7137,"RA_OF_ASC_NODE":19.824,"ARG_OF_PERICENTER":182.4242,"MEAN_ANOMALY":331.6771,"EPHEMERIS_TYPE":0,"CLASSIFICATION_TYPE":"U","NORAD_CAT_ID":65486,"ELEMENT_SET_NO":999,"REV_AT_EPOCH":185,"BSTAR":0,"MEAN_MOTION_DOT":-2.71e-6,"MEAN_MOTION_DDOT":0},{"OBJECT_NAME":"NUSANTARA LIMA (NUSANTARA 5)","OBJECT_ID":"2025-205A","EPOCH":"2026-03-06T23:34:38.773344","MEAN_MOTION":1.00271886,"ECCENTRICITY":9.534e-5,"INCLINATION":0.0811,"RA_OF_ASC_NODE":57.4738,"ARG_OF_PERICENTER":2.2162,"MEAN_ANOMALY":211.4958,"EPHEMERIS_TYPE":0,"CLASSIFICATION_TYPE":"U","NORAD_CAT_ID":65588,"ELEMENT_SET_NO":999,"REV_AT_EPOCH":169,"BSTAR":0,"MEAN_MOTION_DOT":-3.6e-6,"MEAN_MOTION_DDOT":0},{"OBJECT_NAME":"TJS-20","OBJECT_ID":"2025-238A","EPOCH":"2026-03-07T15:18:20.729088","MEAN_MOTION":1.00270893,"ECCENTRICITY":0.00077739,"INCLINATION":5.6956,"RA_OF_ASC_NODE":299.929,"ARG_OF_PERICENTER":92.2678,"MEAN_ANOMALY":65.1075,"EPHEMERIS_TYPE":0,"CLASSIFICATION_TYPE":"U","NORAD_CAT_ID":66142,"ELEMENT_SET_NO":999,"REV_AT_EPOCH":131,"BSTAR":0,"MEAN_MOTION_DOT":2.3e-7,"MEAN_MOTION_DDOT":0},{"OBJECT_NAME":"CMS-03 (GSAT-7R)","OBJECT_ID":"2025-249B","EPOCH":"2026-03-07T15:25:33.661344","MEAN_MOTION":0.99987762,"ECCENTRICITY":0.0001653,"INCLINATION":0.0545,"RA_OF_ASC_NODE":270.8612,"ARG_OF_PERICENTER":211.8451,"MEAN_ANOMALY":351.8763,"EPHEMERIS_TYPE":0,"CLASSIFICATION_TYPE":"U","NORAD_CAT_ID":66311,"ELEMENT_SET_NO":999,"REV_AT_EPOCH":133,"BSTAR":0,"MEAN_MOTION_DOT":-5.3e-7,"MEAN_MOTION_DDOT":0},{"OBJECT_NAME":"SHIJIAN-28 (SJ-28)","OBJECT_ID":"2025-277A","EPOCH":"2026-03-07T13:57:38.791008","MEAN_MOTION":1.00273548,"ECCENTRICITY":3.081e-5,"INCLINATION":4.8003,"RA_OF_ASC_NODE":273.6645,"ARG_OF_PERICENTER":165.0303,"MEAN_ANOMALY":52.7668,"EPHEMERIS_TYPE":0,"CLASSIFICATION_TYPE":"U","NORAD_CAT_ID":66549,"ELEMENT_SET_NO":999,"REV_AT_EPOCH":113,"BSTAR":0,"MEAN_MOTION_DOT":-3.64e-6,"MEAN_MOTION_DDOT":0},{"OBJECT_NAME":"TJS-22","OBJECT_ID":"2025-290A","EPOCH":"2026-03-07T03:34:10.213248","MEAN_MOTION":1.00272345,"ECCENTRICITY":0.00028902,"INCLINATION":1.78,"RA_OF_ASC_NODE":285.4453,"ARG_OF_PERICENTER":359.1777,"MEAN_ANOMALY":0.2201,"EPHEMERIS_TYPE":0,"CLASSIFICATION_TYPE":"U","NORAD_CAT_ID":66990,"ELEMENT_SET_NO":999,"REV_AT_EPOCH":100,"BSTAR":0,"MEAN_MOTION_DOT":-1.0e-7,"MEAN_MOTION_DDOT":0},{"OBJECT_NAME":"TJS-23","OBJECT_ID":"2025-306A","EPOCH":"2026-03-06T21:11:06.018720","MEAN_MOTION":1.00275233,"ECCENTRICITY":0.0004624,"INCLINATION":5.8211,"RA_OF_ASC_NODE":297.9942,"ARG_OF_PERICENTER":108.3772,"MEAN_ANOMALY":251.5396,"EPHEMERIS_TYPE":0,"CLASSIFICATION_TYPE":"U","NORAD_CAT_ID":67226,"ELEMENT_SET_NO":999,"REV_AT_EPOCH":86,"BSTAR":0,"MEAN_MOTION_DOT":1.2e-7,"MEAN_MOTION_DDOT":0}]
